{
  "type": "FeatureCollection",
  "features": [
    {
      "type": "Feature",
      "properties": {
        "norad_id": 31527,
        "name": "FENGYUN 1C DEB",
        "group": "fengyun-1c-debris",
        "lat": -79.53009791257719,
        "lon": -79.6315593018513,
        "alt_km": 856.073657205041,
        "timestamp": "2025-12-19T16:54:44.544564+00:00",
        "meta_object_name": "FENGYUN 1C DEB",
        "meta_object_id": "1999-025BXS",
        "meta_epoch": "2025-12-13T21:39:09.060480",
        "meta_mean_motion": 13.23403725,
        "meta_eccentricity": 0.04500793,
        "meta_inclination": 98.8924,
        "meta_ra_of_asc_node": 153.3063,
        "meta_arg_of_pericenter": 297.5489,
        "meta_mean_anomaly": 58.059,
        "meta_ephemeris_type": 0,
        "meta_classification_type": "U",
        "meta_norad_cat_id": 31527,
        "meta_element_set_no": 999,
        "meta_rev_at_epoch": 90205,
        "meta_bstar": 0.00080308436,
        "meta_mean_motion_dot": 5.44e-06,
        "meta_mean_motion_ddot": 0,
        "tle_line1": "1 31527U 99025BXS 25347.90218820  .00000544  00000+0  80308-3 0  9998",
        "tle_line2": "2 31527  98.8924 153.3063 0450079 297.5489  58.0590 13.23403725902053"
      },
      "geometry": {
        "type": "Point",
        "coordinates": [
          -79.6315593018513,
          -79.53009791257719
        ]
      }
    },
    {
      "type": "Feature",
      "properties": {
        "norad_id": 31531,
        "name": "FENGYUN 1C DEB",
        "group": "fengyun-1c-debris",
        "lat": 74.7526051489679,
        "lon": -108.95956044376977,
        "alt_km": 907.1726172905646,
        "timestamp": "2025-12-19T16:54:44.544577+00:00",
        "meta_object_name": "FENGYUN 1C DEB",
        "meta_object_id": "1999-025BXW",
        "meta_epoch": "2025-12-15T20:25:10.111008",
        "meta_mean_motion": 14.35669626,
        "meta_eccentricity": 0.02439564,
        "meta_inclination": 98.3829,
        "meta_ra_of_asc_node": 34.5409,
        "meta_arg_of_pericenter": 259.2903,
        "meta_mean_anomaly": 98.0732,
        "meta_ephemeris_type": 0,
        "meta_classification_type": "U",
        "meta_norad_cat_id": 31531,
        "meta_element_set_no": 999,
        "meta_rev_at_epoch": 63979,
        "meta_bstar": 0.00065093757,
        "meta_mean_motion_dot": 2.583e-05,
        "meta_mean_motion_ddot": 0,
        "tle_line1": "1 31531U 99025BXW 25349.85081147  .00002583  00000+0  65094-3 0  9999",
        "tle_line2": "2 31531  98.3829  34.5409 0243956 259.2903  98.0732 14.35669626639799"
      },
      "geometry": {
        "type": "Point",
        "coordinates": [
          -108.95956044376977,
          74.7526051489679
        ]
      }
    },
    {
      "type": "Feature",
      "properties": {
        "norad_id": 31533,
        "name": "FENGYUN 1C DEB",
        "group": "fengyun-1c-debris",
        "lat": 68.05573137722281,
        "lon": -137.02467402968315,
        "alt_km": 801.2079402880781,
        "timestamp": "2025-12-19T16:54:44.544587+00:00",
        "meta_object_name": "FENGYUN 1C DEB",
        "meta_object_id": "1999-025BXY",
        "meta_epoch": "2025-12-18T10:18:40.677408",
        "meta_mean_motion": 14.27639307,
        "meta_eccentricity": 0.00653379,
        "meta_inclination": 98.9606,
        "meta_ra_of_asc_node": 244.7236,
        "meta_arg_of_pericenter": 333.1279,
        "meta_mean_anomaly": 26.6522,
        "meta_ephemeris_type": 0,
        "meta_classification_type": "U",
        "meta_norad_cat_id": 31533,
        "meta_element_set_no": 999,
        "meta_rev_at_epoch": 66204,
        "meta_bstar": 0.00032480471,
        "meta_mean_motion_dot": 7.71e-06,
        "meta_mean_motion_ddot": 0,
        "tle_line1": "1 31533U 99025BXY 25352.42963747  .00000771  00000+0  32480-3 0  9993",
        "tle_line2": "2 31533  98.9606 244.7236 0065337 333.1279  26.6522 14.27639307662048"
      },
      "geometry": {
        "type": "Point",
        "coordinates": [
          -137.02467402968315,
          68.05573137722281
        ]
      }
    },
    {
      "type": "Feature",
      "properties": {
        "norad_id": 31535,
        "name": "FENGYUN 1C DEB",
        "group": "fengyun-1c-debris",
        "lat": 61.28348352028894,
        "lon": -171.86095797006038,
        "alt_km": 779.5697681580823,
        "timestamp": "2025-12-19T16:54:44.544597+00:00",
        "meta_object_name": "FENGYUN 1C DEB",
        "meta_object_id": "1999-025BYA",
        "meta_epoch": "2025-12-08T20:01:31.264032",
        "meta_mean_motion": 14.28309987,
        "meta_eccentricity": 0.00876599,
        "meta_inclination": 98.0348,
        "meta_ra_of_asc_node": 193.0693,
        "meta_arg_of_pericenter": 174.5726,
        "meta_mean_anomaly": 185.6428,
        "meta_ephemeris_type": 0,
        "meta_classification_type": "U",
        "meta_norad_cat_id": 31535,
        "meta_element_set_no": 999,
        "meta_rev_at_epoch": 71875,
        "meta_bstar": 0.0012494375,
        "meta_mean_motion_dot": 3.212e-05,
        "meta_mean_motion_ddot": 0,
        "tle_line1": "1 31535U 99025BYA 25342.83438963  .00003212  00000+0  12494-2 0  9991",
        "tle_line2": "2 31535  98.0348 193.0693 0087659 174.5726 185.6428 14.28309987718752"
      },
      "geometry": {
        "type": "Point",
        "coordinates": [
          -171.86095797006038,
          61.28348352028894
        ]
      }
    },
    {
      "type": "Feature",
      "properties": {
        "norad_id": 31536,
        "name": "FENGYUN 1C DEB",
        "group": "fengyun-1c-debris",
        "lat": -25.263748006616648,
        "lon": 77.06332325171834,
        "alt_km": 682.5816938265671,
        "timestamp": "2025-12-19T16:54:44.544607+00:00",
        "meta_object_name": "FENGYUN 1C DEB",
        "meta_object_id": "1999-025BYB",
        "meta_epoch": "2025-12-18T05:19:27.902208",
        "meta_mean_motion": 14.54390079,
        "meta_eccentricity": 0.02945362,
        "meta_inclination": 98.2372,
        "meta_ra_of_asc_node": 259.521,
        "meta_arg_of_pericenter": 127.8062,
        "meta_mean_anomaly": 235.0196,
        "meta_ephemeris_type": 0,
        "meta_classification_type": "U",
        "meta_norad_cat_id": 31536,
        "meta_element_set_no": 999,
        "meta_rev_at_epoch": 96337,
        "meta_bstar": 0.00072957343,
        "meta_mean_motion_dot": 5.508e-05,
        "meta_mean_motion_ddot": 0,
        "tle_line1": "1 31536U 99025BYB 25352.22185072  .00005508  00000+0  72957-3 0  9997",
        "tle_line2": "2 31536  98.2372 259.5210 0294536 127.8062 235.0196 14.54390079963376"
      },
      "geometry": {
        "type": "Point",
        "coordinates": [
          77.06332325171834,
          -25.263748006616648
        ]
      }
    },
    {
      "type": "Feature",
      "properties": {
        "norad_id": 31537,
        "name": "FENGYUN 1C DEB",
        "group": "fengyun-1c-debris",
        "lat": 79.2940063792455,
        "lon": 87.23049040120958,
        "alt_km": 1005.3280617494238,
        "timestamp": "2025-12-19T16:54:44.544619+00:00",
        "meta_object_name": "FENGYUN 1C DEB",
        "meta_object_id": "1999-025BYC",
        "meta_epoch": "2025-12-17T05:20:33.052992",
        "meta_mean_motion": 14.20381153,
        "meta_eccentricity": 0.03486583,
        "meta_inclination": 99.2923,
        "meta_ra_of_asc_node": 144.613,
        "meta_arg_of_pericenter": 311.6715,
        "meta_mean_anomaly": 45.5094,
        "meta_ephemeris_type": 0,
        "meta_classification_type": "U",
        "meta_norad_cat_id": 31537,
        "meta_element_set_no": 999,
        "meta_rev_at_epoch": 93345,
        "meta_bstar": 0.0015959458,
        "meta_mean_motion_dot": 6.271e-05,
        "meta_mean_motion_ddot": 0,
        "tle_line1": "1 31537U 99025BYC 25351.22260478  .00006271  00000+0  15959-2 0  9997",
        "tle_line2": "2 31537  99.2923 144.6130 0348658 311.6715  45.5094 14.20381153933451"
      },
      "geometry": {
        "type": "Point",
        "coordinates": [
          87.23049040120958,
          79.2940063792455
        ]
      }
    },
    {
      "type": "Feature",
      "properties": {
        "norad_id": 31540,
        "name": "FENGYUN 1C DEB",
        "group": "fengyun-1c-debris",
        "lat": 61.1986703614533,
        "lon": -9.292060147863031,
        "alt_km": 788.0970746960393,
        "timestamp": "2025-12-19T16:54:44.544630+00:00",
        "meta_object_name": "FENGYUN 1C DEB",
        "meta_object_id": "1999-025BYF",
        "meta_epoch": "2025-12-17T16:50:42.753408",
        "meta_mean_motion": 14.65440334,
        "meta_eccentricity": 0.0176642,
        "meta_inclination": 99.0563,
        "meta_ra_of_asc_node": 151.6373,
        "meta_arg_of_pericenter": 285.8233,
        "meta_mean_anomaly": 72.3556,
        "meta_ephemeris_type": 0,
        "meta_classification_type": "U",
        "meta_norad_cat_id": 31540,
        "meta_element_set_no": 999,
        "meta_rev_at_epoch": 98374,
        "meta_bstar": 0.00065590191,
        "meta_mean_motion_dot": 4.401e-05,
        "meta_mean_motion_ddot": 0,
        "tle_line1": "1 31540U 99025BYF 25351.70188372  .00004401  00000+0  65590-3 0  9996",
        "tle_line2": "2 31540  99.0563 151.6373 0176642 285.8233  72.3556 14.65440334983743"
      },
      "geometry": {
        "type": "Point",
        "coordinates": [
          -9.292060147863031,
          61.1986703614533
        ]
      }
    }
  ]
}